{
    "links": {
        "self": "http://www.neowsapp.com/rest/v1/neo/3789139?api_key=iIulBulltgU6a56xZRHN4H3l9WmuAYTsLGpBGhQ2"
    },
    "id": "3789139",
    "neo_reference_id": "3789139",
    "name": "(2017 VM2)",
    "designation": "2017 VM2",
    "nasa_jpl_url": "http://ssd.jpl.nasa.gov/sbdb.cgi?sstr=3789139",
    "absolute_magnitude_h": 23.3,
    "estimated_diameter": {
        "kilometers": {
            "estimated_diameter_min": 0.058150704,
            "estimated_diameter_max": 0.130028927
        },
        "meters": {
            "estimated_diameter_min": 58.1507039646,
            "estimated_diameter_max": 130.0289270043
        },
        "miles": {
            "estimated_diameter_min": 0.0361331611,
            "estimated_diameter_max": 0.0807962044
        },
        "feet": {
            "estimated_diameter_min": 190.7831555951,
            "estimated_diameter_max": 426.6041048727
        }
    },
    "is_potentially_hazardous_asteroid": false,
    "close_approach_data": [
        {
            "close_approach_date": "1935-08-25",
            "close_approach_date_full": "1935-Aug-25 11:12",
            "epoch_date_close_approach": -1084106880000,
            "relative_velocity": {
                "kilometers_per_second": "21.0365087879",
                "kilometers_per_hour": "75731.4316364951",
                "miles_per_hour": "47056.5665076877"
            },
            "miss_distance": {
                "astronomical": "0.4071898303",
                "lunar": "158.3968439867",
                "kilometers": "60914731.298541461",
                "miles": "37850658.8705397218"
            },
            "orbiting_body": "Earth"
        },
        {
            "close_approach_date": "2017-11-15",
            "close_approach_date_full": "2017-Nov-15 18:41",
            "epoch_date_close_approach": 1510771260000,
            "relative_velocity": {
                "kilometers_per_second": "8.8954781806",
                "kilometers_per_hour": "32023.7214501437",
                "miles_per_hour": "19898.295142174"
            },
            "miss_distance": {
                "astronomical": "0.045783127",
                "lunar": "17.809636403",
                "kilometers": "6849058.28113949",
                "miles": "4255807.471485362"
            },
            "orbiting_body": "Earth"
        }
    ],
    "orbital_data": {
        "orbit_id": "24",
        "orbit_determination_date": "2018-02-10 07:09:22",
        "first_observation_date": "2017-11-11",
        "last_observation_date": "2017-12-14",
        "data_arc_in_days": 33,
        "observations_used": 198,
        "orbit_uncertainty": "7",
        "minimum_orbit_intersection": ".0205732",
        "jupiter_tisserand_invariant": "3.135",
        "epoch_osculation": "2459000.5",
        "eccentricity": ".6088183548826039",
        "semi_major_axis": "2.577215420289452",
        "inclination": "1.956615068463167",
        "ascending_node_longitude": "238.8594713127616",
        "orbital_period": "1511.208921055368",
        "perihelion_distance": "1.008159367930749",
        "perihelion_argument": "155.437913971496",
        "aphelion_distance": "4.146271472648156",
        "perihelion_time": "2459569.598657684593",
        "mean_anomaly": "224.429389006401",
        "mean_motion": ".2382198748195521",
        "equinox": "J2000",
        "orbit_class": {
            "orbit_class_type": "APO",
            "orbit_class_description": "Near-Earth asteroid orbits which cross the Earth’s orbit similar to that of 1862 Apollo",
            "orbit_class_range": "a (semi-major axis) > 1.0 AU; q (perihelion) < 1.017 AU"
        }
    },
    "is_sentry_object": false
}